CTC1_L_00418001-01
1 22857U 24173NN  26037.47805556  .00000000  00000+0  00000-0 0  9998
2 22857  90.0000   0.0000 0000000   0.0000   0.0000 12.77881336    12
CTC1_L_00418001-02
1 22858U 22187MU  26037.47805556  .00000000  00000+0  00000-0 0  9992
2 22858  90.0000   0.0000 0000000   0.0000  90.0000 12.77881336    12
CTC1_L_00418001-03
1 22859U 22437YU  26037.47805556  .00000000  00000+0  00000-0 0  9991
2 22859  90.0000   0.0000 0000000   0.0000 180.0000 12.77881336    13
CTC1_L_00418001-04
1 22860U 26388TP  26037.47805556  .00000000  00000+0  00000-0 0  9992
2 22860  90.0000   0.0000 0000000   0.0000 270.0000 12.77881336    15
CTC1_L_00418002-01
1 22861U 23379JF  26037.47805556  .00000000  00000+0  00000-0 0  9990
2 22861  90.0000  12.0000 0000000   0.0000  12.0000 12.77881336    13
CTC1_L_00418002-02
1 22862U 23254HW  26037.47805556  .00000000  00000+0  00000-0 0  9993
2 22862  90.0000  12.0000 0000000   0.0000 102.0000 12.77881336    14
CTC1_L_00418002-03
1 22863U 25713XC  26037.47805556  .00000000  00000+0  00000-0 0  9996
2 22863  90.0000  12.0000 0000000   0.0000 192.0000 12.77881336    14
CTC1_L_00418002-04
1 22864U 25595ZC  26037.47805556  .00000000  00000+0  00000-0 0  9995
2 22864  90.0000  12.0000 0000000   0.0000 282.0000 12.77881336    15
CTC1_L_00418003-01
1 22865U 24694LY  26037.47805556  .00000000  00000+0  00000-0 0  9995
2 22865  90.0000  24.0000 0000000   0.0000  24.0000 12.77881336    13
CTC1_L_00418003-02
1 22866U 25218UV  26037.47805556  .00000000  00000+0  00000-0 0  9999
2 22866  90.0000  24.0000 0000000   0.0000 114.0000 12.77881336    14
CTC1_L_00418003-03
1 22867U 22707FU  26037.47805556  .00000000  00000+0  00000-0 0  9990
2 22867  90.0000  24.0000 0000000   0.0000 204.0000 12.77881336    15
CTC1_L_00418003-04
1 22868U 24498ER  26037.47805556  .00000000  00000+0  00000-0 0  9990
2 22868  90.0000  24.0000 0000000   0.0000 294.0000 12.77881336    15
CTC1_L_00418004-01
1 22869U 23179CO  26037.47805556  .00000000  00000+0  00000-0 0  9996
2 22869  90.0000  36.0000 0000000   0.0000  36.0000 12.77881336    13
CTC1_L_00418004-02
1 22870U 25290OQ  26037.47805556  .00000000  00000+0  00000-0 0  9994
2 22870  90.0000  36.0000 0000000   0.0000 126.0000 12.77881336    15
CTC1_L_00418004-03
1 22871U 23435WE  26037.47805556  .00000000  00000+0  00000-0 0  9994
2 22871  90.0000  36.0000 0000000   0.0000 216.0000 12.77881336    16
CTC1_L_00418004-04
1 22872U 26217GH  26037.47805556  .00000000  00000+0  00000-0 0  9996
2 22872  90.0000  36.0000 0000000   0.0000 306.0000 12.77881336    17
CTC1_L_00418005-01
1 22873U 26827Y   26037.47805556  .00000000  00000+0  00000-0 0  9994
2 22873  90.0000  48.0000 0000000   0.0000  48.0000 12.77881336    14
CTC1_L_00418005-02
1 22874U 25901BP  26037.47805556  .00000000  00000+0  00000-0 0  9997
2 22874  90.0000  48.0000 0000000   0.0000 138.0000 12.77881336    15
CTC1_L_00418005-03
1 22875U 25759UW  26037.47805556  .00000000  00000+0  00000-0 0  9999
2 22875  90.0000  48.0000 0000000   0.0000 228.0000 12.77881336    16
CTC1_L_00418005-04
1 22876U 22032PL  26037.47805556  .00000000  00000+0  00000-0 0  9991
2 22876  90.0000  48.0000 0000000   0.0000 318.0000 12.77881336    17
CTC1_L_00418006-01
1 22877U 24460RZ  26037.47805556  .00000000  00000+0  00000-0 0  9999
2 22877  90.0000  60.0000 0000000   0.0000  60.0000 12.77881336    16
CTC1_L_00418006-02
1 22878U 26205HH  26037.47805556  .00000000  00000+0  00000-0 0  9999
2 22878  90.0000  60.0000 0000000   0.0000 150.0000 12.77881336    17
CTC1_L_00418006-03
1 22879U 22442MA  26037.47805556  .00000000  00000+0  00000-0 0  9999
2 22879  90.0000  60.0000 0000000   0.0000 240.0000 12.77881336    18
CTC1_L_00418006-04
1 22880U 26662SK  26037.47805556  .00000000  00000+0  00000-0 0  9999
2 22880  90.0000  60.0000 0000000   0.0000 330.0000 12.77881336    10
CTC1_L_00418007-01
1 22881U 26895JV  26037.47805556  .00000000  00000+0  00000-0 0  9998
2 22881  90.0000  72.0000 0000000   0.0000  72.0000 12.77881336    17
CTC1_L_00418007-02
1 22882U 23784HN  26037.47805556  .00000000  00000+0  00000-0 0  9993
2 22882  90.0000  72.0000 0000000   0.0000 162.0000 12.77881336    18
CTC1_L_00418007-03
1 22883U 22749KS  26037.47805556  .00000000  00000+0  00000-0 0  9994
2 22883  90.0000  72.0000 0000000   0.0000 252.0000 12.77881336    19
CTC1_L_00418007-04
1 22884U 26957SD  26037.47805556  .00000000  00000+0  00000-0 0  9990
2 22884  90.0000  72.0000 0000000   0.0000 342.0000 12.77881336    10
CTC1_L_00418008-01
1 22885U 24883XB  26037.47805556  .00000000  00000+0  00000-0 0  9997
2 22885  90.0000  84.0000 0000000   0.0000  84.0000 12.77881336    17
CTC1_L_00418008-02
1 22886U 22928IC  26037.47805556  .00000000  00000+0  00000-0 0  9996
2 22886  90.0000  84.0000 0000000   0.0000 174.0000 12.77881336    18
CTC1_L_00418008-03
1 22887U 24084NW  26037.47805556  .00000000  00000+0  00000-0 0  9992
2 22887  90.0000  84.0000 0000000   0.0000 264.0000 12.77881336    19
CTC1_L_00418008-04
1 22888U 22509QB  26037.47805556  .00000000  00000+0  00000-0 0  9993
2 22888  90.0000  84.0000 0000000   0.0000 354.0000 12.77881336    10
CTC1_L_00418009-01
1 22889U 23215GD  26037.47805556  .00000000  00000+0  00000-0 0  9999
2 22889  90.0000  96.0000 0000000   0.0000  96.0000 12.77881336    17
CTC1_L_00418009-02
1 22890U 24343U   26037.47805556  .00000000  00000+0  00000-0 0  9994
2 22890  90.0000  96.0000 0000000   0.0000 186.0000 12.77881336    19
CTC1_L_00418009-03
1 22891U 24296AR  26037.47805556  .00000000  00000+0  00000-0 0  9992
2 22891  90.0000  96.0000 0000000   0.0000 276.0000 12.77881336    10
CTC1_L_00418009-04
1 22892U 23184EL  26037.47805556  .00000000  00000+0  00000-0 0  9998
2 22892  90.0000  96.0000 0000000   0.0000   6.0000 12.77881336    12
CTC1_L_00418010-01
1 22893U 22123KS  26037.47805556  .00000000  00000+0  00000-0 0  9991
2 22893  90.0000 108.0000 0000000   0.0000 108.0000 12.77881336    10
CTC1_L_00418010-02
1 22894U 26531AJ  26037.47805556  .00000000  00000+0  00000-0 0  9999
2 22894  90.0000 108.0000 0000000   0.0000 198.0000 12.77881336    10
CTC1_L_00418010-03
1 22895U 26821MD  26037.47805556  .00000000  00000+0  00000-0 0  9992
2 22895  90.0000 108.0000 0000000   0.0000 288.0000 12.77881336    11
CTC1_L_00418010-04
1 22896U 22215BM  26037.47805556  .00000000  00000+0  00000-0 0  9996
2 22896  90.0000 108.0000 0000000   0.0000  18.0000 12.77881336    13
CTC1_L_00418011-01
1 22897U 25671OD  26037.47805556  .00000000  00000+0  00000-0 0  9996
2 22897  90.0000 120.0000 0000000   0.0000 120.0000 12.77881336    12
CTC1_L_00418011-02
1 22898U 22711QS  26037.47805556  .00000000  00000+0  00000-0 0  9999
2 22898  90.0000 120.0000 0000000   0.0000 210.0000 12.77881336    13
CTC1_L_00418011-03
1 22899U 22113IT  26037.47805556  .00000000  00000+0  00000-0 0  9996
2 22899  90.0000 120.0000 0000000   0.0000 300.0000 12.77881336    14
CTC1_L_00418011-04
1 22900U 24492TW  26037.47805556  .00000000  00000+0  00000-0 0  9991
2 22900  90.0000 120.0000 0000000   0.0000  30.0000 12.77881336    17
CTC1_L_00418012-01
1 22901U 25922XM  26037.47805556  .00000000  00000+0  00000-0 0  9991
2 22901  90.0000 132.0000 0000000   0.0000 132.0000 12.77881336    14
CTC1_L_00418012-02
1 22902U 23407SS  26037.47805556  .00000000  00000+0  00000-0 0  9998
2 22902  90.0000 132.0000 0000000   0.0000 222.0000 12.77881336    15
CTC1_L_00418012-03
1 22903U 25089ZM  26037.47805556  .00000000  00000+0  00000-0 0  9997
2 22903  90.0000 132.0000 0000000   0.0000 312.0000 12.77881336    16
CTC1_L_00418012-04
1 22904U 26843SP  26037.47805556  .00000000  00000+0  00000-0 0  9997
2 22904  90.0000 132.0000 0000000   0.0000  42.0000 12.77881336    17
CTC1_L_00418013-01
1 22905U 26719A   26037.47805556  .00000000  00000+0  00000-0 0  9990
2 22905  90.0000 144.0000 0000000   0.0000 144.0000 12.77881336    14
CTC1_L_00418013-02
1 22906U 26880VA  26037.47805556  .00000000  00000+0  00000-0 0  9990
2 22906  90.0000 144.0000 0000000   0.0000 234.0000 12.77881336    15
CTC1_L_00418013-03
1 22907U 26640JG  26037.47805556  .00000000  00000+0  00000-0 0  9995
2 22907  90.0000 144.0000 0000000   0.0000 324.0000 12.77881336    16
CTC1_L_00418013-04
1 22908U 23779XY  26037.47805556  .00000000  00000+0  00000-0 0  9996
2 22908  90.0000 144.0000 0000000   0.0000  54.0000 12.77881336    17
CTC1_L_00418014-01
1 22909U 26242JU  26037.47805556  .00000000  00000+0  00000-0 0  9995
2 22909  90.0000 156.0000 0000000   0.0000 156.0000 12.77881336    14
CTC1_L_00418014-02
1 22910U 22589SR  26037.47805556  .00000000  00000+0  00000-0 0  9997
2 22910  90.0000 156.0000 0000000   0.0000 246.0000 12.77881336    16
CTC1_L_00418014-03
1 22911U 22249YS  26037.47805556  .00000000  00000+0  00000-0 0  9991
2 22911  90.0000 156.0000 0000000   0.0000 336.0000 12.77881336    17
CTC1_L_00418014-04
1 22912U 25694SM  26037.47805556  .00000000  00000+0  00000-0 0  9999
2 22912  90.0000 156.0000 0000000   0.0000  66.0000 12.77881336    18
CTC1_L_00418015-01
1 22913U 26425QW  26037.47805556  .00000000  00000+0  00000-0 0  9993
2 22913  90.0000 168.0000 0000000   0.0000 168.0000 12.77881336    15
CTC1_L_00418015-02
1 22914U 22582VE  26037.47805556  .00000000  00000+0  00000-0 0  9994
2 22914  90.0000 168.0000 0000000   0.0000 258.0000 12.77881336    16
CTC1_L_00418015-03
1 22915U 25749CV  26037.47805556  .00000000  00000+0  00000-0 0  9993
2 22915  90.0000 168.0000 0000000   0.0000 348.0000 12.77881336    17
CTC1_L_00418015-04
1 22916U 26160WT  26037.47805556  .00000000  00000+0  00000-0 0  9992
2 22916  90.0000 168.0000 0000000   0.0000  78.0000 12.77881336    18
CTC1_L_00418016-01
1 22917U 25811HD  26037.47805556  .00000000  00000+0  00000-0 0  9995
2 22917  90.0000 180.0000 0000000   0.0000 180.0000 12.77881336    17
CTC1_L_00418016-02
1 22918U 23659EZ  26037.47805556  .00000000  00000+0  00000-0 0  9994
2 22918  90.0000 180.0000 0000000   0.0000 270.0000 12.77881336    18
